[{"OBJECT_NAME":"STARLINK-6061","OBJECT_ID":"2023-078AE","EPOCH":"2026-03-09T11:05:19.124160","MEAN_MOTION":14.9833018,"ECCENTRICITY":0.00030659,"INCLINATION":70.0004,"RA_OF_ASC_NODE":324.8598,"ARG_OF_PERICENTER":274.8249,"MEAN_ANOMALY":85.256,"EPHEMERIS_TYPE":0,"CLASSIFICATION_TYPE":"U","NORAD_CAT_ID":56795,"ELEMENT_SET_NO":999,"REV_AT_EPOCH":15314,"BSTAR":-8.013856e-6,"MEAN_MOTION_DOT":-1.89e-6,"MEAN_MOTION_DDOT":0},{"OBJECT_NAME":"CZ-6A DEB","OBJECT_ID":"2022-151ADY","EPOCH":"2026-03-09T03:31:51.275136","MEAN_MOTION":14.90358805,"ECCENTRICITY":0.00492463,"INCLINATION":98.6182,"RA_OF_ASC_NODE":136.027,"ARG_OF_PERICENTER":205.5066,"MEAN_ANOMALY":154.3719,"EPHEMERIS_TYPE":0,"CLASSIFICATION_TYPE":"U","NORAD_CAT_ID":56600,"ELEMENT_SET_NO":999,"REV_AT_EPOCH":16160,"BSTAR":0.0054644315,"MEAN_MOTION_DOT":0.00054726,"MEAN_MOTION_DDOT":0}]
